{
  "type": "FeatureCollection",
  "features": [
    {
      "type": "Feature",
      "properties": {
        "norad_id": 39617,
        "name": "ASTRA 5B (EGNOS/PRN 123)",
        "group": "gnss",
        "lat": 0.046932189291063596,
        "lon": 167.84943415904712,
        "alt_km": 35788.447714813396,
        "timestamp": "2025-12-15T04:01:20.695215+00:00",
        "meta_object_name": "ASTRA 5B (EGNOS/PRN 123)",
        "meta_object_id": "2014-011B",
        "meta_epoch": "2025-12-14T06:40:51.181824",
        "meta_mean_motion": 1.00273338,
        "meta_eccentricity": 0.00042871,
        "meta_inclination": 0.0639,
        "meta_ra_of_asc_node": 41.0853,
        "meta_arg_of_pericenter": 226.1071,
        "meta_mean_anomaly": 299.7109,
        "meta_ephemeris_type": 0,
        "meta_classification_type": "U",
        "meta_norad_cat_id": 39617,
        "meta_element_set_no": 999,
        "meta_rev_at_epoch": 4281,
        "meta_bstar": 0,
        "meta_mean_motion_dot": 1.55e-06,
        "meta_mean_motion_ddot": 0,
        "tle_line1": "1 39617U 14011B   25348.27837016  .00000155  00000+0  00000+0 0  9998",
        "tle_line2": "2 39617   0.0639  41.0853 0004287 226.1071 299.7109  1.00273338 42816"
      },
      "geometry": {
        "type": "Point",
        "coordinates": [
          167.84943415904712,
          0.046932189291063596
        ]
      }
    },
    {
      "type": "Feature",
      "properties": {
        "norad_id": 39620,
        "name": "COSMOS 2492 (754)",
        "group": "gnss",
        "lat": -9.443375776002949,
        "lon": 144.54514800469275,
        "alt_km": 19150.29567011635,
        "timestamp": "2025-12-15T04:01:20.695227+00:00",
        "meta_object_name": "COSMOS 2492 (754)",
        "meta_object_id": "2014-012A",
        "meta_epoch": "2025-12-12T02:29:11.116896",
        "meta_mean_motion": 2.1310296,
        "meta_eccentricity": 0.00141989,
        "meta_inclination": 65.408,
        "meta_ra_of_asc_node": 320.2923,
        "meta_arg_of_pericenter": 311.6032,
        "meta_mean_anomaly": 48.2746,
        "meta_ephemeris_type": 0,
        "meta_classification_type": "U",
        "meta_norad_cat_id": 39620,
        "meta_element_set_no": 999,
        "meta_rev_at_epoch": 9125,
        "meta_bstar": 0,
        "meta_mean_motion_dot": -5.5e-07,
        "meta_mean_motion_ddot": 0,
        "tle_line1": "1 39620U 14012A   25346.10360089 -.00000055  00000+0  00000+0 0  9994",
        "tle_line2": "2 39620  65.4080 320.2923 0014198 311.6032  48.2746  2.13102960 91257"
      },
      "geometry": {
        "type": "Point",
        "coordinates": [
          144.54514800469275,
          -9.443375776002949
        ]
      }
    },
    {
      "type": "Feature",
      "properties": {
        "norad_id": 39635,
        "name": "IRNSS-1B",
        "group": "gnss",
        "lat": -19.63923012637341,
        "lon": -155.9949333445832,
        "alt_km": 35784.19116391244,
        "timestamp": "2025-12-15T04:01:20.695242+00:00",
        "meta_object_name": "IRNSS-1B",
        "meta_object_id": "2014-017A",
        "meta_epoch": "2025-12-11T18:54:44.030304",
        "meta_mean_motion": 1.00285038,
        "meta_eccentricity": 0.00181492,
        "meta_inclination": 29.2271,
        "meta_ra_of_asc_node": 243.6214,
        "meta_arg_of_pericenter": 227.0185,
        "meta_mean_anomaly": 309.1991,
        "meta_ephemeris_type": 0,
        "meta_classification_type": "U",
        "meta_norad_cat_id": 39635,
        "meta_element_set_no": 999,
        "meta_rev_at_epoch": 4291,
        "meta_bstar": 0,
        "meta_mean_motion_dot": 1.07e-06,
        "meta_mean_motion_ddot": 0,
        "tle_line1": "1 39635U 14017A   25345.78800961  .00000107  00000+0  00000+0 0  9993",
        "tle_line2": "2 39635  29.2271 243.6214 0018149 227.0185 309.1991  1.00285038 42916"
      },
      "geometry": {
        "type": "Point",
        "coordinates": [
          -155.9949333445832,
          -19.63923012637341
        ]
      }
    },
    {
      "type": "Feature",
      "properties": {
        "norad_id": 39727,
        "name": "LUCH 5V (SDCM/PRN 141)",
        "group": "gnss",
        "lat": 0.9836164402259313,
        "lon": -120.86519775742404,
        "alt_km": 35772.36422601557,
        "timestamp": "2025-12-15T04:01:20.695288+00:00",
        "meta_object_name": "LUCH 5V (SDCM/PRN 141)",
        "meta_object_id": "2014-023A",
        "meta_epoch": "2025-12-14T07:01:11.733888",
        "meta_mean_motion": 1.00268743,
        "meta_eccentricity": 0.00044913,
        "meta_inclination": 4.6735,
        "meta_ra_of_asc_node": 71.5247,
        "meta_arg_of_pericenter": 207.8232,
        "meta_mean_anomaly": 3.8939,
        "meta_ephemeris_type": 0,
        "meta_classification_type": "U",
        "meta_norad_cat_id": 39727,
        "meta_element_set_no": 999,
        "meta_rev_at_epoch": 4250,
        "meta_bstar": 0,
        "meta_mean_motion_dot": -2.52e-06,
        "meta_mean_motion_ddot": 0,
        "tle_line1": "1 39727U 14023A   25348.29249692 -.00000252  00000+0  00000+0 0  9991",
        "tle_line2": "2 39727   4.6735  71.5247 0004491 207.8232   3.8939  1.00268743 42507"
      },
      "geometry": {
        "type": "Point",
        "coordinates": [
          -120.86519775742404,
          0.9836164402259313
        ]
      }
    },
    {
      "type": "Feature",
      "properties": {
        "norad_id": 39741,
        "name": "GPS BIIF-6  (PRN 06)",
        "group": "gnss",
        "lat": 39.49423304786113,
        "lon": 125.7112212168345,
        "alt_km": 20280.698848896485,
        "timestamp": "2025-12-15T04:01:20.695310+00:00",
        "meta_object_name": "GPS BIIF-6  (PRN 06)",
        "meta_object_id": "2014-026A",
        "meta_epoch": "2025-12-13T23:45:04.300704",
        "meta_mean_motion": 2.00561334,
        "meta_eccentricity": 0.00392152,
        "meta_inclination": 56.5831,
        "meta_ra_of_asc_node": 338.7277,
        "meta_arg_of_pericenter": 318.7582,
        "meta_mean_anomaly": 40.9585,
        "meta_ephemeris_type": 0,
        "meta_classification_type": "U",
        "meta_norad_cat_id": 39741,
        "meta_element_set_no": 999,
        "meta_rev_at_epoch": 8482,
        "meta_bstar": 0,
        "meta_mean_motion_dot": -8.7e-07,
        "meta_mean_motion_ddot": 0,
        "tle_line1": "1 39741U 14026A   25347.98963311 -.00000087  00000+0  00000+0 0  9992",
        "tle_line2": "2 39741  56.5831 338.7277 0039215 318.7582  40.9585  2.00561334 84822"
      },
      "geometry": {
        "type": "Point",
        "coordinates": [
          125.7112212168345,
          39.49423304786113
        ]
      }
    },
    {
      "type": "Feature",
      "properties": {
        "norad_id": 40001,
        "name": "COSMOS 2500 (755)",
        "group": "gnss",
        "lat": 50.74516924032269,
        "lon": -5.865096982507862,
        "alt_km": 19143.506769170406,
        "timestamp": "2025-12-15T04:01:20.695324+00:00",
        "meta_object_name": "COSMOS 2500 (755)",
        "meta_object_id": "2014-032A",
        "meta_epoch": "2025-12-13T05:08:36.801312",
        "meta_mean_motion": 2.13105905,
        "meta_eccentricity": 0.00081883,
        "meta_inclination": 65.3428,
        "meta_ra_of_asc_node": 320.0161,
        "meta_arg_of_pericenter": 218.9765,
        "meta_mean_anomaly": 140.9635,
        "meta_ephemeris_type": 0,
        "meta_classification_type": "U",
        "meta_norad_cat_id": 40001,
        "meta_element_set_no": 999,
        "meta_rev_at_epoch": 8949,
        "meta_bstar": 0,
        "meta_mean_motion_dot": -6e-07,
        "meta_mean_motion_ddot": 0,
        "tle_line1": "1 40001U 14032A   25347.21431483 -.00000060  00000+0  00000+0 0  9997",
        "tle_line2": "2 40001  65.3428 320.0161 0008188 218.9765 140.9635  2.13105905 89495"
      },
      "geometry": {
        "type": "Point",
        "coordinates": [
          -5.865096982507862,
          50.74516924032269
        ]
      }
    },
    {
      "type": "Feature",
      "properties": {
        "norad_id": 40105,
        "name": "GPS BIIF-7  (PRN 09)",
        "group": "gnss",
        "lat": 49.376556613760854,
        "lon": 149.7858395959605,
        "alt_km": 20122.504134350827,
        "timestamp": "2025-12-15T04:01:20.695336+00:00",
        "meta_object_name": "GPS BIIF-7  (PRN 09)",
        "meta_object_id": "2014-045A",
        "meta_epoch": "2025-12-12T01:59:18.865536",
        "meta_mean_motion": 2.00572516,
        "meta_eccentricity": 0.00326941,
        "meta_inclination": 55.2287,
        "meta_ra_of_asc_node": 95.9251,
        "meta_arg_of_pericenter": 119.8618,
        "meta_mean_anomaly": 240.4523,
        "meta_ephemeris_type": 0,
        "meta_classification_type": "U",
        "meta_norad_cat_id": 40105,
        "meta_element_set_no": 999,
        "meta_rev_at_epoch": 8232,
        "meta_bstar": 0,
        "meta_mean_motion_dot": -9e-08,
        "meta_mean_motion_ddot": 0,
        "tle_line1": "1 40105U 14045A   25346.08285724 -.00000009  00000+0  00000+0 0  9998",
        "tle_line2": "2 40105  55.2287  95.9251 0032694 119.8618 240.4523  2.00572516 82323"
      },
      "geometry": {
        "type": "Point",
        "coordinates": [
          149.7858395959605,
          49.376556613760854
        ]
      }
    }
  ]
}